{
    "links": {
        "self": "http://www.neowsapp.com/rest/v1/neo/3771625?api_key=iIulBulltgU6a56xZRHN4H3l9WmuAYTsLGpBGhQ2"
    },
    "id": "3771625",
    "neo_reference_id": "3771625",
    "name": "(2017 FQ2)",
    "designation": "2017 FQ2",
    "nasa_jpl_url": "http://ssd.jpl.nasa.gov/sbdb.cgi?sstr=3771625",
    "absolute_magnitude_h": 25.1,
    "estimated_diameter": {
        "kilometers": {
            "estimated_diameter_min": 0.0253837029,
            "estimated_diameter_max": 0.0567596853
        },
        "meters": {
            "estimated_diameter_min": 25.3837029364,
            "estimated_diameter_max": 56.7596852866
        },
        "miles": {
            "estimated_diameter_min": 0.0157726969,
            "estimated_diameter_max": 0.0352688224
        },
        "feet": {
            "estimated_diameter_min": 83.279867942,
            "estimated_diameter_max": 186.2194458756
        }
    },
    "is_potentially_hazardous_asteroid": false,
    "close_approach_data": [
        {
            "close_approach_date": "2017-03-09",
            "close_approach_date_full": "2017-Mar-09 22:23",
            "epoch_date_close_approach": 1489098180000,
            "relative_velocity": {
                "kilometers_per_second": "3.2468178044",
                "kilometers_per_hour": "11688.5440959605",
                "miles_per_hour": "7262.8067467372"
            },
            "miss_distance": {
                "astronomical": "0.1305680805",
                "lunar": "50.7909833145",
                "kilometers": "19532706.732788535",
                "miles": "12137061.160750383"
            },
            "orbiting_body": "Earth"
        }
    ],
    "orbital_data": {
        "orbit_id": "3",
        "orbit_determination_date": "2017-04-06 08:19:23",
        "first_observation_date": "2017-03-18",
        "last_observation_date": "2017-03-27",
        "data_arc_in_days": 9,
        "observations_used": 24,
        "orbit_uncertainty": "8",
        "minimum_orbit_intersection": ".128853",
        "jupiter_tisserand_invariant": "4.715",
        "epoch_osculation": "2457832.5",
        "eccentricity": ".2040205359167087",
        "semi_major_axis": "1.405349599602977",
        "inclination": "5.946905722180576",
        "ascending_node_longitude": "174.3235807484648",
        "orbital_period": "608.5201845073829",
        "perihelion_distance": "1.118629421141646",
        "perihelion_argument": "344.5844875820857",
        "aphelion_distance": "1.692069778064309",
        "perihelion_time": "2457810.063253330855",
        "mean_anomaly": "13.27355937655705",
        "mean_motion": ".5915991107039972",
        "equinox": "J2000",
        "orbit_class": {
            "orbit_class_type": "AMO",
            "orbit_class_description": "Near-Earth asteroid orbits similar to that of 1221 Amor",
            "orbit_class_range": "1.017 AU < q (perihelion) < 1.3 AU"
        }
    },
    "is_sentry_object": false
}